ONEWEB-0283             
1 49001U 21060AL  25255.77244131  .00000068  00000+0  14531-3 0  9991
2 49001  87.8980 284.0748 0001688  90.1872 269.9452 13.16595921203115
ONEWEB-0284             
1 49002U 21060AM  25255.84211370  .00000029  00000+0  43288-4 0  9998
2 49002  87.8989 284.0419 0001993 101.8987 258.2368 13.16594503203107
ONEWEB-0285             
1 49075U 21075A   25255.70951024  .00000358  00000+0  96082-3 0  9990
2 49075  87.8898  45.7882 0001633  96.6008 263.5307 13.12443592198818
ONEWEB-0286             
1 49076U 21075B   25255.69136959 -.00000210  00000+0 -61908-3 0  9999
2 49076  87.8900  45.8265 0001880  93.8378 266.2965 13.12442408198165
ONEWEB-0287             
1 49077U 21075C   25255.92369235  .00000015  00000+0  44008-5 0  9996
2 49077  87.9049  61.0144 0002056  92.4955 267.6412 13.17646740197115
ONEWEB-0288             
1 49078U 21075D   25255.66718388 -.00000253  00000+0 -73885-3 0  9994
2 49078  87.8898  45.7913 0001762  99.9216 260.2112 13.12442993198784
ONEWEB-0289             
1 49079U 21075E   25255.73455992  .00000033  00000+0  52445-4 0  9996
2 49079  87.9035  61.0776 0001785 106.5799 253.5529 13.17647884197667
ONEWEB-0290             
1 49080U 21075F   25255.93550223  .00000032  00000+0  48043-4 0  9991
2 49080  87.9045  60.9918 0001310 110.1131 250.0142 13.17649592197101
